[{"OBJECT_NAME":"STARLINK-31151","OBJECT_ID":"2024-005Q","EPOCH":"2026-03-09T20:57:21.170016","MEAN_MOTION":15.26983329,"ECCENTRICITY":0.00022415,"INCLINATION":42.9997,"RA_OF_ASC_NODE":218.5607,"ARG_OF_PERICENTER":186.8294,"MEAN_ANOMALY":173.2528,"EPHEMERIS_TYPE":0,"CLASSIFICATION_TYPE":"U","NORAD_CAT_ID":58742,"ELEMENT_SET_NO":999,"REV_AT_EPOCH":12056,"BSTAR":0.001944854,"MEAN_MOTION_DOT":0.00052672,"MEAN_MOTION_DDOT":0},{"OBJECT_NAME":"NUSAT-48 (HENRIETTA LEAVITT)","OBJECT_ID":"2024-149AG","EPOCH":"2026-03-09T19:19:17.269536","MEAN_MOTION":15.29812597,"ECCENTRICITY":0.00027538,"INCLINATION":97.3923,"RA_OF_ASC_NODE":150.8264,"ARG_OF_PERICENTER":263.3026,"MEAN_ANOMALY":96.7901,"EPHEMERIS_TYPE":0,"CLASSIFICATION_TYPE":"U","NORAD_CAT_ID":60498,"ELEMENT_SET_NO":999,"REV_AT_EPOCH":8694,"BSTAR":0.00045211745,"MEAN_MOTION_DOT":0.00012988,"MEAN_MOTION_DDOT":0}]
